194P/LINEAR,e,11.9106,349.6396,128.7617,4.122886,0.1177340,0.56737287,295.1562,08/01.0/2022,2000,g 16.0,4.0
# From MPEC 2021-S45
195P/Hill,e,36.3334,243.1239,249.2402,6.507162,0.0593768,0.31408603,295.2341,08/01.0/2022,2000,g  8.5,4.0
# From MPC 92985
196P/Tichy,e,19.2995,24.1121,12.0665,3.807121,0.1326811,0.42862309,348.1391,08/01.0/2022,2000,g 13.5,4.0
# From MPC 94676
197P/LINEAR,e,25.5277,66.3641,188.7493,2.867995,0.2029254,0.62937369,333.8783,08/01.0/2022,2000,g 16.5,2.0
# From NK 1596
198P/ODAS,e,1.3386,358.2372,69.1835,3.597041,0.1444728,0.44402313,191.5244,08/01.0/2022,2000,g  9.0,4.0
# From MPEC 2022-N37
199P/Shoemaker,e,24.9332,92.3557,191.7518,5.886851,0.0690048,0.50561170,334.3654,08/01.0/2022,2000,g 10.0,4.0
# From MPEC 2022-C56
200P/Larsen,e,12.0980,234.7563,134.2405,4.944735,0.0896375,0.33270301,98.4326,08/01.0/2022,2000,g  9.0,4.0
# From MPC 93588
201P/LONEOS,e,5.7396,19.7453,41.5427,3.354538,0.1604187,0.63721827,69.1834,08/01.0/2022,2000,g 14.0,4.0
# From MPEC 2022-K19
202P/Scotti,e,2.1256,177.3502,275.7974,4.103139,0.1185850,0.25902854,281.8940,08/01.0/2022,2000,g 13.5,4.0
# From MPEC 2021-S45
203P/Korlevic,e,2.9726,290.3112,154.7716,4.669804,0.0976688,0.31550472,85.8798,08/01.0/2022,2000,g 14.5,2.0
# From MPC 98566
204P/LINEAR-NEAT,e,6.5962,108.5000,356.6425,3.581212,0.1454317,0.48777359,344.3147,08/01.0/2022,2000,g 14.0,4.0
# From MPEC 2022-K19
205P/Giacobini,e,15.3062,179.6023,154.1716,3.542439,0.1478259,0.56809506,29.4647,08/01.0/2022,2000,g 13.0,4.0
# From MPC 75725
206P/Barnard-Boattini,e,33.6378,202.3333,189.5139,3.489376,0.1512107,0.55150568,77.7839,08/01.0/2022,2000,g 19.0,4.0
# From MPC 75725
207P/NEAT,e,10.1982,198.1845,273.0573,3.876743,0.1291230,0.75855632,289.1365,08/01.0/2022,2000,g 16.0,4.0
# From MPEC 2022-K19
208P/McMillan,e,4.4123,36.3396,310.5512,4.042980,0.1212416,0.37415208,268.6488,08/01.0/2022,2000,g 12.5,4.0
# From MPC 90771
209P/LINEAR,e,21.2592,62.7702,152.4405,2.959920,0.1935460,0.67314655,221.8053,08/01.0/2022,2000,g 17.0,2.0
# From MPC105242
210P/Christensen,e,10.2696,93.8130,345.8945,3.163314,0.1751824,0.83348123,148.0367,08/01.0/2022,2000,g 13.5,4.0
# From MPEC 2022-ED3
211P/Hill,e,18.9209,117.1318,4.2773,3.546590,0.1475664,0.34370312,350.4678,08/01.0/2022,2000,g 12.5,4.0
# From MPEC 2021-F20
212P/NEAT,e,22.1631,98.1267,14.0602,3.895912,0.1281712,0.58719735,278.8434,08/01.0/2022,2000,g 17.0,2.0
# From MPEC 2022-GA9
213P/VanNess,e,10.3810,311.2900,5.7232,3.346865,0.1609707,0.40822213,284.7260,08/01.0/2022,2000,g 10.5,4.0
# From MPC 92986
214P/LINEAR,e,15.1834,348.2491,190.1875,3.619954,0.1431032,0.48591315,351.9533,08/01.0/2022,2000,g 13.0,4.0
# From MPEC 2022-F14
215P/NEAT,e,10.5783,56.6829,262.3459,4.330070,0.1093860,0.16643489,107.8048,08/01.0/2022,2000,g 11.0,4.0
# From MPC100284
216P/LINEAR,e,9.0652,359.8129,151.5443,3.862033,0.1298614,0.44835132,292.0006,08/01.0/2022,2000,g 13.0,4.0
# From MPEC 2021-N06
217P/LINEAR,e,12.8626,125.4491,246.9001,3.949211,0.1255852,0.68921800,230.9437,08/01.0/2022,2000,g 12.0,4.0
# From MPEC 2022-K19
218P/LINEAR,e,2.7297,175.9918,59.6242,3.089898,0.1814629,0.62259541,120.8870,08/01.0/2022,2000,g 16.0,4.0
# From MPC100284
219P/LINEAR,e,11.5375,230.9520,107.5380,3.647624,0.1414780,0.35415951,280.5530,08/01.0/2022,2000,g 11.0,4.0
# From MPEC 2021-BE3
220P/McNaught,e,8.1287,150.1025,180.5859,3.117030,0.1790988,0.50155778,107.1673,08/01.0/2022,2000,g 15.0,4.0
# From MPEC 2021-J28
221P/LINEAR,e,11.4296,229.6736,40.1672,3.458535,0.1532378,0.49311287,34.6092,08/01.0/2022,2000,g 14.5,4.0
# From MPC 92277
222P/LINEAR,e,5.0986,6.7761,346.2688,2.898960,0.1996828,0.71480335,230.0548,08/01.0/2022,2000,g 20.0,4.0
# From MPEC 2021-S45
223P/Skiff,e,27.0263,346.7704,37.8353,4.158739,0.1162148,0.41641793,148.8298,08/01.0/2022,2000,g 12.0,4.0
# From MPC 75727
224P/LINEAR-NEAT,e,13.3053,40.0382,16.6636,3.444525,0.1541736,0.40601382,350.7564,08/01.0/2022,2000,g 15.5,4.0
# From MPC 75727
225P/LINEAR,e,21.3667,14.2045,3.8992,3.648562,0.1414235,0.63842861,307.3806,08/01.0/2022,2000,g 18.0,4.0
# From MPC106349
226P/Pigott-LINEAR-Kowalski,e,44.0414,54.0090,341.0576,3.766554,0.1348304,0.52888236,290.7944,08/01.0/2022,2000,g 12.5,4.0
# From MPC102956
227P/Catalina-LINEAR,e,7.4143,37.2671,104.4825,3.465010,0.1528084,0.53079668,271.0515,08/01.0/2022,2000,g 16.5,2.0
# From MPEC 2022-HC2
228P/LINEAR,e,7.9131,30.9858,114.9496,4.167935,0.1158304,0.17623251,101.4054,08/01.0/2022,2000,g 14.1,4.0
# From MPC106349
229P/Gibbs,e,26.0922,157.9097,224.0197,3.927411,0.1266323,0.37775972,240.0241,08/01.0/2022,2000,g 13.0,4.0
# From MPEC 2022-GA9
230P/LINEAR,e,15.4698,106.9841,313.4370,3.451601,0.1536998,0.54548367,20.6965,08/01.0/2022,2000,g 13.0,4.0
# From MPEC 2022-K19
231P/LINEAR-NEAT,e,12.3108,133.0035,44.1260,4.042940,0.1212434,0.24423343,138.3891,08/01.0/2022,2000,g 14.5,2.0
# From MPC112394
232P/Hill,e,14.6406,56.0196,53.2742,4.476378,0.1040672,0.33450247,126.2776,08/01.0/2022,2000,g 11.5,4.0
# From MPEC 2021-N06
233P/La Sagra,e,11.2869,74.9151,26.9814,3.029009,0.1869619,0.41201307,124.9646,08/01.0/2022,2000,g 15.0,4.0
# From MPEC 2022-K19
234P/LINEAR,e,11.5356,179.5723,357.2494,3.797755,0.1331722,0.25599170,251.5285,08/01.0/2022,2000,g 12.0,4.0
# From MPC110497
235P/LINEAR,e,9.2043,202.5503,333.6784,3.928304,0.1265891,0.33570336,200.6255,08/01.0/2022,2000,g 12.0,4.0
# From MPC107688
236P/LINEAR,e,16.3460,245.5838,119.3071,3.728723,0.1368876,0.50935024,234.4051,08/01.0/2022,2000,g 14.0,4.0
# From MPEC 2022-K19
237P/LINEAR,e,14.0151,245.3642,25.2533,3.511854,0.1497612,0.43421115,317.0693,08/01.0/2022,2000,g 14.5,2.0
# From MPEC 2022-K19
238P/Read,e,1.2640,51.6257,324.2169,3.166752,0.1748973,0.25179869,9.8869,08/01.0/2022,2000,g 14.5,4.0
# From MPEC 2021-F20
239P/LINEAR,e,11.3007,255.9212,220.3909,4.468337,0.1043483,0.63017905,135.6369,08/01.0/2022,2000,g 17.5,2.0
# From MPEC 2021-F20
240P/NEAT,e,23.5241,74.9075,351.9436,3.864905,0.1297167,0.44958049,199.4925,08/01.0/2022,2000,g 12.1,4.0
# From MPEC 2022-J42
241P/LINEAR,e,21.1041,305.4812,111.4464,4.920000,0.0903143,0.61024896,33.5166,08/01.0/2022,2000,g 13.5,4.0
# From MPEC 2021-S45
242P/Spahr,e,32.5096,180.3760,245.5718,5.496883,0.0764767,0.27871461,292.6200,08/01.0/2022,2000,g  8.0,4.0
# From MPEC 2022-K19
243P/NEAT,e,7.6408,87.6098,283.6029,3.830139,0.1314868,0.36055541,188.5973,08/01.0/2022,2000,g 12.5,4.0
# From MPEC 2022-ED3
244P/Scotti,e,2.2594,353.9914,93.0832,4.895454,0.0909944,0.19916832,350.1659,08/01.0/2022,2000,g  9.0,4.0
# From MPEC 2022-CN4
245P/WISE,e,21.1930,316.6591,316.8754,4.046604,0.1210788,0.45643338,198.0007,08/01.0/2022,2000,g 14.0,4.0
# From MPEC 2022-OB6
246P/NEAT,e,15.9665,78.4851,176.9637,4.032061,0.1217344,0.28919713,63.5510,08/01.0/2022,2000,g 10.5,4.0
# From MPEC 2021-F20
247P/LINEAR,e,13.6573,54.0221,47.4192,3.967913,0.1246984,0.62447741,166.9386,08/01.0/2022,2000,g 16.5,2.0
# From MPC 75730
248P/Gibbs,e,6.3509,207.8040,209.8529,5.990858,0.0672157,0.63890683,283.2944,08/01.0/2022,2000,g 14.0,4.0
# From MPEC 2021-S45
249P/LINEAR,e,8.3883,239.1063,65.7083,2.763446,0.2145495,0.81985218,163.5988,08/01.0/2022,2000,g 15.5,4.0
# From MPC110497
250P/Larson,e,13.1535,73.3932,46.1296,3.767023,0.1348052,0.39918347,222.3671,08/01.0/2022,2000,g 14.5,4.0
# From MPC104795
251P/LINEAR,e,23.3866,219.3523,31.2757,3.512244,0.1497363,0.50459668,275.9586,08/01.0/2022,2000,g 16.5,2.0
# From MPEC 2021-S45
252P/LINEAR,e,10.4115,190.9263,343.3599,3.050326,0.1850055,0.67163436,71.3693,08/01.0/2022,2000,g 17.5,4.0
# From MPEC 2020-FB5
253P/PANSTARRS,e,4.9435,146.8842,230.6788,3.465148,0.1527993,0.41444238,235.9581,08/01.0/2022,2000,g 14.5,4.0
# From MPEC 2022-K19
254P/McNaught,e,32.5699,129.1807,219.6132,4.614587,0.0994271,0.31976465,66.5937,08/01.0/2022,2000,g 11.0,4.0
# From MPEC 2021-UA9
255P/Levy,e,13.4110,275.6653,186.0129,2.942269,0.1952902,0.71153684,352.7164,08/01.0/2022,2000,g 14.1,4.0
# From MPEC 2022-C56
256P/LINEAR,e,27.6191,81.3381,124.2081,4.639277,0.0986345,0.41797788,337.9736,08/01.0/2022,2000,g 14.0,2.0
# From MPEC 2021-Y10
257P/Catalina,e,20.2201,207.7216,117.7298,3.763460,0.1349967,0.43022076,93.0485,08/01.0/2022,2000,g 11.5,4.0
# From MPEC 2021-U31
258P/PANSTARRS,e,6.7464,126.2413,25.8373,4.395422,0.1069555,0.20840578,82.7976,08/01.0/2022,2000,g 13.0,4.0
# From MPC106349
259P/Garradd,e,15.8926,51.4338,257.6299,2.730917,0.2183944,0.33889751,37.9246,08/01.0/2022,2000,g 15.5,4.0
# From MPEC 2022-O01
260P/McNaught,e,15.0584,349.3384,18.4312,3.623176,0.1429124,0.60934960,150.8311,08/01.0/2022,2000,g 13.5,4.0
# From MPEC 2021-J28
261P/Larson,e,6.0729,291.1308,67.2268,3.490442,0.1511414,0.42336118,172.0751,08/01.0/2022,2000,g 14.0,4.0
# From MPC 82322
262P/McNaught-Russell,e,29.2741,217.8669,171.0430,6.872332,0.0547076,0.81618455,192.9291,08/01.0/2022,2000,g 13.5,4.0
# From MPC 89018
263P/Gibbs,e,11.5215,105.5143,35.0229,3.042173,0.1857497,0.59355895,326.0877,08/01.0/2022,2000,g  9.0,4.0
# From MPC114608
264P/Larsen,e,25.2868,220.3131,346.7174,3.887177,0.1286034,0.37587741,140.5449,08/01.0/2022,2000,g 13.0,4.0
# From MPC 79870
265P/LINEAR,e,14.3645,342.9263,33.4674,4.255253,0.1122835,0.64761901,60.3925,08/01.0/2022,2000,g 14.5,4.0
# From MPEC 2021-F20
266P/Christensen,e,3.4270,4.9974,97.6921,3.532127,0.1484737,0.33971348,123.7925,08/01.0/2022,2000,g 14.7,4.0
# From MPC114608
267P/LONEOS,e,6.1423,228.5768,114.2196,3.211068,0.1712891,0.61441416,251.6303,08/01.0/2022,2000,g 19.5,4.0
# From MPC 92277
268P/Bernardi,e,15.8193,126.8243,359.8014,4.567742,0.1009606,0.47772572,271.9911,08/01.0/2022,2000,g 14.0,4.0
# From MPC104795
269P/Jedicke,e,7.0787,241.7349,225.7319,7.070857,0.0524199,0.43117945,150.0637,08/01.0/2022,2000,g 10.0,4.0
# From MPC 88332
270P/Gehrels,e,2.9231,223.0180,209.7682,6.660608,0.0573368,0.46859310,191.4770,08/01.0/2022,2000,g  8.0,4.0
# From MPC 92277
271P/van Houten-Lemmon,e,6.8724,9.3187,36.3931,7.037844,0.0527891,0.39536199,174.3447,08/01.0/2022,2000,g 11.0,4.0
# From MPEC 2022-C56
